ONEWEB-0387             
1 49313U 21090AL  24098.92041635 -.00000004  00000+0 -41154-4 0  9999
2 49313  87.9158  73.7441 0002344  85.9609 274.1792 13.20771487124184
ONEWEB-0388             
1 49314U 21090AM  24099.46486303  .00000032  00000+0  46603-4 0  9998
2 49314  87.9099 104.1516 0001934  84.0521 276.0833 13.19725070122223
ONEWEB-0389             
1 50469U 21132A   24099.43909185  .00000052  00000+0  10196-3 0  9992
2 50469  87.9231 165.0021 0002608  99.3773 260.7653 13.17649018114055
ONEWEB-0390             
1 50470U 21132B   24099.44066956  .00000132  00000+0  30665-3 0  9997
2 50470  87.9232 165.0097 0002384 108.0391 252.1000 13.17650185114054
ONEWEB-0391             
1 50471U 21132C   24099.44225192  .00000113  00000+0  25837-3 0  9991
2 50471  87.9240 164.9866 0002518  94.5340 265.6079 13.17650175114052
ONEWEB-0392             
1 50472U 21132D   24099.47230851  .00000093  00000+0  20698-3 0  9990
2 50472  87.9225 164.9916 0002476  99.5918 260.5494 13.17652988114094
ONEWEB-0393             
1 50473U 21132E   24099.21774214  .00000080  00000+0  17242-3 0  9996
2 50473  87.9231 165.0105 0002466  98.8381 261.3030 13.17648831114052
ONEWEB-0394             
1 50474U 21132F   24098.82840720  .00000029  00000+0  41193-4 0  9995
2 50474  87.9145 134.7803 0002167  93.2542 266.8838 13.18685203116111
ONEWEB-0395             
1 50475U 21132G   24099.19576436  .00000184  00000+0  48334-3 0  9992
2 50475  87.9031 180.1949 0002336 103.4330 256.7059 13.11421530112134
ONEWEB-0396             
1 50476U 21132H   24098.82208742  .00000051  00000+0  97709-4 0  9998
2 50476  87.9150 134.7761 0002177  90.7782 269.3600 13.18685105116151
ONEWEB-0397             
1 50477U 21132J   24099.13981834  .00000126  00000+0  28780-3 0  9999
2 50477  87.9151 134.7141 0002214  89.9512 270.1874 13.18685905117442
ONEWEB-0398             
1 50478U 21132K   24099.23959431 -.00000235  00000+0 -69795-3 0  9993
2 50478  87.9028 180.1687 0002387 111.4801 248.6582 13.11419082112040
ONEWEB-0399             
1 50479U 21132L   24099.45389272  .00000378  00000+0  10310-2 0  9992
2 50479  87.9029 180.1418 0001947  91.7699 268.3652 13.11415946112064
ONEWEB-0400             
1 50480U 21132M   24099.11926338  .00000114  00000+0  25707-3 0  9992
2 50480  87.9148 134.7242 0002155 101.6371 258.5003 13.18685340117440
ONEWEB-0401             
1 50481U 21132N   24099.38957160  .00000072  00000+0  14972-3 0  9994
2 50481  87.9146 134.6685 0001816  88.1844 271.9496 13.18685832117481
ONEWEB-0402             
1 50482U 21132P   24099.50653238 -.00000027  00000+0 -10017-3 0  9996
2 50482  87.9146 134.6425 0001451  91.9120 268.2178 13.18685572117520
ONEWEB-0403             
1 50483U 21132Q   24099.15087638  .00000001  00000+0 -29869-4 0  9990
2 50483  87.9146 134.7193 0002111  88.2732 271.8642 13.18687242117438
ONEWEB-0404             
1 50484U 21132R   24099.20716576  .00000549  00000+0  15142-2 0  9990
2 50484  87.9035 180.1572 0002426  95.8403 264.3001 13.11419441112113
ONEWEB-0405             
1 50485U 21132S   24099.16669317  .00000035  00000+0  55135-4 0  9994
2 50485  87.9152 134.7056 0001772  82.4673 277.6660 13.18687129117840
ONEWEB-0406             
1 50486U 21132T   24099.38325579  .00000033  00000+0  50580-4 0  9995
2 50486  87.9151 134.6723 0002454  94.5518 265.5894 13.18685506117505
ONEWEB-0407             
1 50487U 21132U   24098.84579652  .00000040  00000+0  67983-4 0  9992
2 50487  87.9145 134.7844 0001987  89.4416 270.6943 13.18685689116080
ONEWEB-0409             
1 50488U 21132V   24099.20551746  .00000530  00000+0  14601-2 0  9999
2 50488  87.9026 180.1602 0002716 101.2459 258.8974 13.11419834112018
ONEWEB-0412             
1 50489U 21132W   24099.13823016  .00000403  00000+0  99045-3 0  9999
2 50489  87.9159 134.7221 0001808  77.1821 282.9513 13.18687036117495
ONEWEB-0413             
1 50490U 21132X   24099.37060603  .00000120  00000+0  27267-3 0  9995
2 50490  87.9150 134.6894 0001670  87.7183 272.4140 13.18684768117475
ONEWEB-0414             
1 50491U 21132Y   24098.52172579 -.00001872  00000+0 -47810-2 0  9990
2 50491  87.9143 134.8400 0002177  85.7038 274.4343 13.18694718116105
ONEWEB-0417             
1 50492U 21132Z   24098.83315203  .00000029  00000+0  41750-4 0  9998
2 50492  87.9150 134.7755 0002375  95.7784 264.3619 13.18685049116128
ONEWEB-0418             
1 50493U 21132AA  24099.37362644  .00000114  00000+0  25612-3 0  9993
2 50493  87.9148 134.6737 0002614  92.8279 267.3152 13.18684634117538
ONEWEB-0419             
1 50494U 21132AB  24098.86002043  .00000047  00000+0  86828-4 0  9993
2 50494  87.9146 134.7957 0002389 100.9283 259.2118 13.18685428116103
ONEWEB-0420             
1 50495U 21132AC  24099.50970315  .00000042  00000+0  74647-4 0  9993
2 50495  87.9141 134.6748 0001673  96.2779 263.8544 13.18687389117482
ONEWEB-0421             
1 50496U 21132AD  24098.82051067 -.00000064  00000+0 -19555-3 0  9994
2 50496  87.9153 134.7724 0002019  82.5763 277.5598 13.18685771116132
ONEWEB-0424             
1 50497U 21132AE  24098.85528323  .00000036  00000+0  57324-4 0  9996
2 50497  87.9149 134.7751 0002360 107.5789 252.5601 13.18684691116164
ONEWEB-0426             
1 50498U 21132AF  24098.81733947  .00000007  00000+0 -15092-4 0  9998
2 50498  87.9143 134.8024 0002613  83.9161 276.2269 13.18684597116107
ONEWEB-0427             
1 50499U 21132AG  24098.85367568  .00000010  00000+0 -80116-5 0  9999
2 50499  87.9144 134.7718 0002350  93.4931 266.6470 13.18683560116136
ONEWEB-0429             
1 50500U 21132AH  24099.37218337  .00000079  00000+0  16696-3 0  9993
2 50500  87.9151 134.6704 0001991  94.6760 265.4599 13.18684506117461
ONEWEB-0430             
1 50501U 21132AJ  24099.36111867  .00000108  00000+0  24155-3 0  9995
2 50501  87.9150 134.6797 0002060 109.3422 250.7933 13.18686864117503
ONEWEB-0432             
1 50502U 21132AK  24099.39273617  .00000048  00000+0  90123-4 0  9993
2 50502  87.9146 134.6670 0002032  98.0593 262.0770 13.18686014117479
ONEWEB-0440             
1 50503U 21132AL  24098.84895452  .00000049  00000+0  92614-4 0  9998
2 50503  87.9151 134.7617 0001702  79.6008 280.5316 13.18685087116094
ONEWEB-0450             
1 50504U 21132AM  24099.14627469  .00000092  00000+0  20014-3 0  9996
2 50504  87.9150 134.7308 0001706 101.5538 258.5785 13.18686663117455
ONEWEB-0410             
1 51622U 22012A   24099.45808970  .00000079  00000+0  17077-3 0  9998
2 51622  87.9227 164.9832 0003461  82.3926 277.7599 13.17653623109676
ONEWEB-0411             
1 51623U 22012B   24099.24456880 -.00001305  00000+0 -37735-2 0  9992
2 51623  87.9005 195.2146 0002195 116.3123 243.8230 13.10393970105802
ONEWEB-0415             
1 51624U 22012C   24099.54666888 -.00002707  00000+0 -77906-2 0  9998
2 51624  87.8999 195.1803 0002252 112.8734 247.2631 13.10393007105844
ONEWEB-0416             
1 51625U 22012D   24099.55830427  .00000658  00000+0  18483-2 0  9998
2 51625  87.9001 195.1685 0001959 103.1913 256.9432 13.10370575105899
ONEWEB-0422             
1 51626U 22012E   24099.46755728  .00000062  00000+0  12538-3 0  9994
2 51626  87.9232 164.9796 0001290 105.1761 254.9513 13.17648006109777
ONEWEB-0423             
1 51627U 22012F   24099.15749012  .00000140  00000+0  32768-3 0  9994
2 51627  87.9232 165.0407 0002019  97.7531 262.3830 13.17647588109634
ONEWEB-0425             
1 51628U 22012G   24098.49922382  .00002625  00000+0  74841-2 0  9991
2 51628  87.8995 195.3630 0002024  94.4100 265.7258 13.10350663105754
ONEWEB-0428             
1 51629U 22012H   24098.55570392 -.00002416  00000+0 -69567-2 0  9998
2 51629  87.9000 195.3664 0001698 112.6957 247.4350 13.10389382105715
ONEWEB-0431             
1 51630U 22012J   24099.51830622  .00005170  00000+0  14784-1 0  9990
2 51630  87.8988 195.1779 0001971 128.4164 231.7141 13.10289177105901
ONEWEB-0434             
1 51631U 22012K   24099.49521833  .00003611  00000+0  10307-1 0  9994
2 51631  87.8997 195.1928 0001730 104.7537 255.3782 13.10346788105884
ONEWEB-0435             
1 51632U 22012L   24099.19805908  .00005149  00000+0  14715-1 0  9995
2 51632  87.8994 195.2420 0001478 111.9017 248.2267 13.10330482105829
ONEWEB-0436             
1 51633U 22012M   24099.45333014  .00000047  00000+0  87131-4 0  9996
2 51633  87.9230 164.9900 0001779 100.8089 259.3243 13.17649103109652
ONEWEB-0438             
1 51634U 22012N   24099.18147865  .00001557  00000+0  44237-2 0  9999
2 51634  87.8995 195.2456 0002107  98.7238 261.4128 13.10364464105862
ONEWEB-0439             
1 51635U 22012P   24099.56657829  .00001214  00000+0  34422-2 0  9993
2 51635  87.8997 195.1542 0001925 106.2070 253.9270 13.10366094105883
ONEWEB-0442             
1 51636U 22012Q   24099.44462089 -.00000197  00000+0 -53973-3 0  9997
2 51636  87.9230 165.0239 0002923  96.4211 263.7253 13.17648831109647
ONEWEB-0443             
1 51637U 22012R   24099.46439572  .00000075  00000+0  15954-3 0  9991
2 51637  87.9232 165.0266 0001596  91.9483 268.1831 13.17649727109697
ONEWEB-0444             
1 51638U 22012S   24099.17484654  .00000064  00000+0  14677-3 0  9990
2 51638  87.8995 195.2565 0001694 102.1550 257.9767 13.10374110105851
ONEWEB-0445             
1 51639U 22012T   24099.19639084  .00003980  00000+0  11365-1 0  9991
2 51639  87.8988 195.2281 0002258 106.5003 253.6373 13.10346572105854
ONEWEB-0446             
1 51640U 22012U   24098.71505173 -.00000509  00000+0 -14930-2 0  9999
2 51640  87.8996 195.3403 0002273 108.4706 251.6669 13.10376752104498
ONEWEB-0448             
1 51641U 22012V   24099.55992319  .00000729  00000+0  20514-2 0  9992
2 51641  87.9002 195.1750 0001762 102.1086 258.0239 13.10373647105861
ONEWEB-0449             
1 51642U 22012W   24099.56491965  .00000953  00000+0  26949-2 0  9992
2 51642  87.8989 195.1731 0002122  96.5794 263.5575 13.10369007105888
